{
    "links": {
        "self": "http://www.neowsapp.com/rest/v1/neo/3655451?api_key=iIulBulltgU6a56xZRHN4H3l9WmuAYTsLGpBGhQ2"
    },
    "id": "3655451",
    "neo_reference_id": "3655451",
    "name": "(2013 YB14)",
    "designation": "2013 YB14",
    "nasa_jpl_url": "http://ssd.jpl.nasa.gov/sbdb.cgi?sstr=3655451",
    "absolute_magnitude_h": 22.8,
    "estimated_diameter": {
        "kilometers": {
            "estimated_diameter_min": 0.0732073989,
            "estimated_diameter_max": 0.1636967205
        },
        "meters": {
            "estimated_diameter_min": 73.2073989347,
            "estimated_diameter_max": 163.696720474
        },
        "miles": {
            "estimated_diameter_min": 0.0454889547,
            "estimated_diameter_max": 0.1017163949
        },
        "feet": {
            "estimated_diameter_min": 240.181762721,
            "estimated_diameter_max": 537.0627483999
        }
    },
    "is_potentially_hazardous_asteroid": false,
    "close_approach_data": [
        {
            "close_approach_date": "2013-11-02",
            "close_approach_date_full": "2013-Nov-02 09:32",
            "epoch_date_close_approach": 1383384720000,
            "relative_velocity": {
                "kilometers_per_second": "12.0493989283",
                "kilometers_per_hour": "43377.8361419214",
                "miles_per_hour": "26953.30046274"
            },
            "miss_distance": {
                "astronomical": "0.0803210693",
                "lunar": "31.2448959577",
                "kilometers": "12015860.883402391",
                "miles": "7466309.7355633558"
            },
            "orbiting_body": "Venus"
        },
        {
            "close_approach_date": "2013-12-24",
            "close_approach_date_full": "2013-Dec-24 06:53",
            "epoch_date_close_approach": 1387867980000,
            "relative_velocity": {
                "kilometers_per_second": "19.3538449186",
                "kilometers_per_hour": "69673.841706928",
                "miles_per_hour": "43292.6156983964"
            },
            "miss_distance": {
                "astronomical": "0.0492459217",
                "lunar": "19.1566635413",
                "kilometers": "7367084.992506779",
                "miles": "4577694.3438363902"
            },
            "orbiting_body": "Earth"
        }
    ],
    "orbital_data": {
        "orbit_id": "14",
        "orbit_determination_date": "2017-04-06 08:43:11",
        "first_observation_date": "2013-12-26",
        "last_observation_date": "2014-01-07",
        "data_arc_in_days": 12,
        "observations_used": 83,
        "orbit_uncertainty": "8",
        "minimum_orbit_intersection": ".0132771",
        "jupiter_tisserand_invariant": "3.083",
        "epoch_osculation": "2456655.5",
        "eccentricity": ".7048719836585076",
        "semi_major_axis": "2.470256356961658",
        "inclination": "2.718254518586658",
        "ascending_node_longitude": "293.2690059579569",
        "orbital_period": "1418.115047283807",
        "perihelion_distance": ".7290418584850556",
        "perihelion_argument": "87.62367995606539",
        "aphelion_distance": "4.211470855438259",
        "perihelion_time": "2456609.256082995054",
        "mean_anomaly": "11.73939318510654",
        "mean_motion": ".2538581060045359",
        "equinox": "J2000",
        "orbit_class": {
            "orbit_class_type": "APO",
            "orbit_class_description": "Near-Earth asteroid orbits which cross the Earth’s orbit similar to that of 1862 Apollo",
            "orbit_class_range": "a (semi-major axis) > 1.0 AU; q (perihelion) < 1.017 AU"
        }
    },
    "is_sentry_object": false
}